#aV2015  9 21  0  0  0.00000000     288 DD+AD WGS84 FIT  NGA
## 1863  86400.00000000   300.00000000 57286 0.0000000000000
+   31     1  2  3  4  5  6  7  8  9 11 12 13 14 15 16 17 18
+         19 20 21 22 23 24 25 26 27 28 29 30 31 32  0  0  0
+          0  0  0  0  0  0  0  0  0  0  0  0  0  0  0  0  0
+          0  0  0  0  0  0  0  0  0  0  0  0  0  0  0  0  0
+          0  0  0  0  0  0  0  0  0  0  0  0  0  0  0  0  0
++         2  2  2  2  2  2  2  2  2  2  2  2  2  2  2  2  2
++         2  2  2  2  2  2  2  2  2  2  2  2  2  2  0  0  0
++         0  0  0  0  0  0  0  0  0  0  0  0  0  0  0  0  0
++         0  0  0  0  0  0  0  0  0  0  0  0  0  0  0  0  0
++         0  0  0  0  0  0  0  0  0  0  0  0  0  0  0  0  0
%c cc cc ccc ccc cccc cccc cccc cccc ccccc ccccc ccccc ccccc
%c cc cc ccc ccc cccc cccc cccc cccc ccccc ccccc ccccc ccccc
%f  0.0000000  0.000000000  0.00000000000  0.000000000000000
%f  0.0000000  0.000000000  0.00000000000  0.000000000000000
%i    0    0    0    0      0      0      0      0         0
%i    0    0    0    0      0      0      0      0         0
/*      NGA, ST. LOUIS,MO.                                  
/*   EPHEMERIS COMPUTED FROM  1 DAYS OF DATA                
/*   EPOCHA SMOOTHER                                       
/* CCCCCCCCCCCCCCCCCCCCCCCCCCCCCCCCCCCCCCCCCCCCCCCCCCCCCCCCC
*  2015  9 21  1 30  0.00000000
P  1 -13522.741119  19206.498754  12129.857017      0.871990                    
V  1   1412.721061 -15712.630767  26499.819763      0.007144                    
P  2  14888.253003   4242.535985 -21208.367694    589.750602                    
V  2  -5649.603267  27323.285720   1040.592552      0.015797                    
P  3 -20692.564442  13338.715090  -9988.099578     21.197152                    
V  3 -12889.758220   1136.619115  28172.479749      0.002802                    
P  4 -15852.235001  10645.630834  18005.974933    -22.922216                    
V  4   3178.685640 -23609.037058  16697.699387     -0.042260                    
P  5  25108.574236   -824.214735  -8974.237360   -193.314457                    
V  5  -9988.352678   5940.803417 -28486.441284      0.040388                    
P  6   9398.000100  16399.073603 -18663.096781     61.995089                    
V  6  -6954.767428  22689.677441  16428.352619      0.072906                    
P  7  -5504.264792  25694.032496   2031.443393    484.432651                    
V  7  -3420.367567   1621.194790 -32055.244875     -0.006818                    
P  8 -17463.242469   2616.058633  19878.084662     -5.986720                    
V  8 -17465.642260 -18138.583475 -12998.665455     -0.013643                    
P  9    961.289930  18951.943916 -18583.209143     -8.375654                    
V  9 -18205.185120 -15102.642625 -16362.681221      0.020568                    
P 11 -11968.220760  15862.851803  17034.246566   -605.457784                    
V 11  -5476.884497 -22517.776087  16682.994980     -0.023270                    
P 12  22714.002945 -10936.677643  -8113.459646    329.954225                    
V 12  10344.937401   -542.607748  30285.347164      0.034071                    
P 13  20204.451288   8415.890798  14837.313685   -150.722688                    
V 13  10787.527888  15864.922903 -23585.552238     -0.029422                    
P 14 -13659.282716 -21989.858292   6547.099238     33.331947                    
V 14   7081.641121   4317.216010  30309.242437     -0.026120                    
P 15  17532.854575  -4038.784227  19539.143348   -272.682292                    
V 15  18094.075653  17343.081812 -12258.251447     -0.020420                    
P 16 -25041.119441   -803.261311  -9440.393689    -84.454098                    
V 16  11148.145165  -3877.974032 -29138.828698      0.039370                    
P 17  14767.887017  21439.252561   6104.924007   -188.379890                    
V 17  -6572.024449  -3822.243844  30647.842556     -0.013653                    
P 18   2785.487014 -17130.116342  20552.112859    435.816943                    
V 18  24357.784986  -6491.319114  -9221.027155      0.032821                    
P 19 -11832.802761   9103.338545  21771.158588   -520.395416                    
V 19 -18492.385166 -21166.903912   -765.212456     -0.005673                    
P 20  22285.456018 -13183.211636   5949.816378    356.931441                    
V 20   8575.418926    715.278943 -29686.757620      0.030514                    
P 21   1490.602992 -25871.326514   5658.964454   -481.202369                    
V 21   5008.127718  -5435.862963 -30265.594050     -0.027496                    
P 22 -11619.973940 -12617.722591  20550.718570    393.295660                    
V 22  24183.599142  -8688.852116   8260.453451      0.037487                    
P 23 -12173.869059   9643.618497 -21401.591021   -134.390248                    
V 23 -19863.334266 -19153.942247   2216.665819     -0.021849                    
P 24  14308.449966 -17034.859607  14356.970896     -5.013598                    
V 24  -1661.405501  18458.120451  23656.348856     -0.006684                    
P 25  12019.510120 -15850.790898 -17616.615198    -41.542356                    
V 25  21699.970624  -4853.772335  19440.922931     -0.051991                    
P 26 -18840.870277  -7053.064940 -17347.181554    -58.963030                    
V 26  20625.294045  -7898.051517 -19185.746952     -0.113975                    
P 27 -21811.747939  -9134.051638  12189.061888     21.310314                    
V 27  -9798.196013 -12137.517532 -26450.732970      0.029939                    
P 28   6664.737017  13638.920790  22428.398373    469.001198                    
V 28 -26249.330448   5825.763471   4301.180986      0.026966                    
P 29   2068.484580 -17504.483646 -19868.044875    635.371515                    
V 29  17984.891424  17687.456224 -13665.117424      0.021410                    
P 30   1624.699971  23423.076697  12336.209004     28.031343                    
V 30  -7234.379185  14174.147831 -26036.962153      0.065376                    
P 31  -9154.864453 -15638.669590 -19164.347712    302.124740                    
V 31   7960.940424 -23415.487071  15531.262193     -0.013716                    
P 32 -25811.423948   4775.594325    768.444248    -37.412903                    
V 32    272.516307  -3859.160926  31786.035369      0.111071                    
EOF
